STARLINK-32537          
1 61923U 24207M   26068.08050523  .00028705  00000+0  10489-2 0  9996
2 61923  42.9996 289.0978 0001558 273.0497  87.0176 15.27569636 74589
FLOCK 4G-21             
1 62651U 25009AU  26068.19487675  .00013648  00000+0  49619-3 0  9998
2 62651  97.4032 151.1274 0000465 329.5782  30.5431 15.28381075 63677
